OBJECT_NAME,OBJECT_ID,EPOCH,MEAN_MOTION,ECCENTRICITY,INCLINATION,RA_OF_ASC_NODE,ARG_OF_PERICENTER,MEAN_ANOMALY,EPHEMERIS_TYPE,CLASSIFICATION_TYPE,NORAD_CAT_ID,ELEMENT_SET_NO,REV_AT_EPOCH,BSTAR,MEAN_MOTION_DOT,MEAN_MOTION_DDOT
STARLINK-35223,2025-198C,2025-10-03T14:00:03.000384,15.49288534,.00008335,53.1581,289.6676,88.2827,167.5544,0,U,65494,999,507,.13919339E-2,.77682E-3,0
STARLINK-34446,2025-198D,2025-10-03T14:00:03.000384,15.49296833,.0000879,53.1582,289.6717,87.7845,166.1477,0,U,65495,999,533,.55087816E-3,.30295E-3,0
STARLINK-35212,2025-198E,2025-10-03T14:00:03.000384,15.49295640,.00008802,53.1581,289.6595,85.2004,174.4817,0,U,65496,999,507,.63442697E-3,.34977E-3,0
STARLINK-34455,2025-198F,2025-10-03T14:00:03.000384,15.49303962,.00007464,53.1580,289.6634,87.5236,170.2244,0,U,65497,999,533,.65280186E-3,.36019E-3,0
STARLINK-35203,2025-198G,2025-10-03T14:00:03.000384,15.49353095,.0000742,53.1583,289.6477,50.3669,215.0838,0,U,65498,999,527,-.62903692E-3,-.35328E-3,0
STARLINK-35166,2025-198H,2025-10-03T14:00:03.000384,15.49376555,.00009675,53.1586,289.6392,52.1544,217.1386,0,U,65499,999,527,-.13361942E-2,-.74235E-3,0
STARLINK-35207,2025-198J,2025-10-03T14:00:03.000384,15.49391284,.00008014,53.1584,289.6514,66.2714,197.2057,0,U,65500,999,527,-.10904737E-2,-.608E-3,0
STARLINK-35140,2025-198K,2025-10-03T14:00:03.000384,15.49346479,.00014048,53.1585,289.6435,76.8196,190.6274,0,U,65501,999,527,-.15398257E-2,-.85273E-3,0
STARLINK-35114,2025-198L,2025-10-03T14:00:03.000384,15.49384838,.00006374,53.1582,289.6551,65.1582,196.4076,0,U,65502,999,523,-.97350557E-3,-.54358E-3,0
STARLINK-35126,2025-198M,2025-10-03T14:00:03.000384,15.49310215,.00013864,53.1584,289.6303,76.8262,196.3813,0,U,65503,999,527,-.12095249E-3,-.7169E-4,0
STARLINK-35182,2025-198N,2025-10-03T14:00:03.000384,15.49361152,.00009664,53.1584,289.6355,44.2257,226.9811,0,U,65504,999,517,-.89123285E-3,-.4979E-3,0
STARLINK-35072,2025-198P,2025-10-03T14:00:03.000384,15.49344460,.00014515,53.1586,289.6264,77.4349,197.6820,0,U,65505,999,507,-.14693524E-2,-.81425E-3,0
STARLINK-35184,2025-198Q,2025-10-03T14:00:03.000384,15.49344229,.00012966,53.1584,289.6220,83.0739,193.9544,0,U,65506,999,507,-.12134145E-2,-.67438E-3,0
STARLINK-35163,2025-198R,2025-10-03T14:00:03.000384,15.49298436,.00010274,53.1584,289.6147,48.4158,232.3597,0,U,65507,999,535,.59619442E-3,.32837E-3,0
STARLINK-35119,2025-198S,2025-10-03T14:00:03.000384,15.49323760,.00010986,53.1585,289.6191,38.7949,240.0611,0,U,65508,999,523,-.90980319E-4,-.5507E-4,0
STARLINK-35168,2025-198T,2025-10-03T14:00:03.000384,15.49339122,.00014122,53.1587,289.6101,82.1566,200.6253,0,U,65509,999,527,-.10654142E-2,-.59318E-3,0
STARLINK-35122,2025-198U,2025-10-03T14:00:03.000384,15.49306213,.00014188,53.1585,289.6061,76.6114,208.0976,0,U,65510,999,523,.22502354E-4,.803E-5,0
STARLINK-35124,2025-198V,2025-10-03T14:00:03.000384,15.49332654,.00014426,53.1586,289.6021,80.8704,205.7513,0,U,65511,999,528,-.11092018E-2,-.61705E-3,0
STARLINK-35149,2025-198W,2025-10-03T14:00:03.000384,15.49306053,.00011902,53.1587,289.5973,82.8459,205.7176,0,U,65512,999,534,-.54255328E-3,-.30502E-3,0
STARLINK-35019,2025-198X,2025-10-03T14:00:03.000384,15.49298000,.00014524,53.1587,289.5937,78.0193,212.4381,0,U,65513,999,524,.3323064E-3,.18069E-3,0
STARLINK-35026,2025-198Y,2025-10-03T14:00:03.000384,15.49294773,.00010942,53.1585,289.5906,42.5931,249.6736,0,U,65514,999,529,.5630234E-3,.30973E-3,0
STARLINK-35241,2025-198Z,2025-10-03T14:00:03.000384,15.49339617,.00015317,53.1586,289.5859,75.0757,219.2102,0,U,65515,999,524,-.13541456E-2,-.75124E-3,0
STARLINK-35216,2025-198AA,2025-10-03T14:00:03.000384,15.49297752,.0001113,53.1585,289.5824,43.5852,252.5097,0,U,65516,999,528,.41007809E-3,.22415E-3,0
STARLINK-35228,2025-198AB,2025-10-03T14:00:03.000384,15.49303506,.00012209,53.1586,289.5776,82.8456,215.3020,0,U,65517,999,534,-.59619535E-3,-.33458E-3,0
STARLINK-35232,2025-198AC,2025-10-03T14:00:03.000384,15.49309363,.00012975,53.1585,289.5741,84.1377,215.9271,0,U,65518,999,524,-.69864389E-3,-.39111E-3,0
STARLINK-35164,2025-198AD,2025-10-03T14:00:03.000384,15.49341358,.00013943,53.1588,289.5700,80.6519,221.2951,0,U,65519,999,528,-.11019334E-2,-.61325E-3,0
STARLINK-35112,2025-200A,2025-10-03T14:00:03.000384,15.50514151,.00016864,97.6034,343.1284,89.9610,295.3650,0,U,65520,999,534,-.2852046E-1,-.1452583E-1,0
STARLINK-35187,2025-200B,2025-10-03T14:00:03.000384,15.50512367,.00016184,97.6035,343.1292,94.8667,292.3817,0,U,65521,999,534,-.28492944E-1,-.1451217E-1,0
STARLINK-35188,2025-200C,2025-10-03T14:00:03.000384,15.50513830,.00017029,97.6034,343.1310,87.7410,303.3486,0,U,65522,999,529,-.28534003E-1,-.1453193E-1,0
STARLINK-35078,2025-200D,2025-10-03T14:00:03.000384,15.50510097,.00016823,97.6031,343.1299,94.2777,294.8916,0,U,65523,999,539,-.28407885E-1,-.1447262E-1,0
