STARLINK-35223          
1 65494U 25198C   25276.58336806  .00077682  00000+0  13919-2 0  9998
2 65494  53.1581 289.6676 0000833  88.2827 167.5544 15.49288534  5079
STARLINK-34446          
1 65495U 25198D   25276.58336806  .00030295  00000+0  55088-3 0  9992
2 65495  53.1582 289.6717 0000879  87.7845 166.1477 15.49296833  5331
STARLINK-35212          
1 65496U 25198E   25276.58336806  .00034977  00000+0  63443-3 0  9998
2 65496  53.1581 289.6595 0000880  85.2004 174.4817 15.49295640  5073
STARLINK-34455          
1 65497U 25198F   25276.58336806  .00036019  00000+0  65280-3 0  9999
2 65497  53.1580 289.6634 0000746  87.5236 170.2244 15.49303962  5334
STARLINK-35203          
1 65498U 25198G   25276.58336806 -.00035328  00000+0 -62904-3 0  9994
2 65498  53.1583 289.6477 0000742  50.3669 215.0838 15.49353095  5279
STARLINK-35166          
1 65499U 25198H   25276.58336806 -.00074235  00000+0 -13362-2 0  9998
2 65499  53.1586 289.6392 0000967  52.1544 217.1386 15.49376555  5277
STARLINK-35207          
1 65500U 25198J   25276.58336806 -.00060800  00000+0 -10905-2 0  9994
2 65500  53.1584 289.6514 0000801  66.2714 197.2057 15.49391284  5275
STARLINK-35140          
1 65501U 25198K   25276.58336806 -.00085273  00000+0 -15398-2 0  9997
2 65501  53.1585 289.6435 0001404  76.8196 190.6274 15.49346479  5274
STARLINK-35114          
1 65502U 25198L   25276.58336806 -.00054358  00000+0 -97351-3 0  9998
2 65502  53.1582 289.6551 0000637  65.1582 196.4076 15.49384838  5239
STARLINK-35126          
1 65503U 25198M   25276.58336806 -.00007169  00000+0 -12095-3 0  9999
2 65503  53.1584 289.6303 0001386  76.8262 196.3813 15.49310215  5273
STARLINK-35182          
1 65504U 25198N   25276.58336806 -.00049790  00000+0 -89123-3 0  9992
2 65504  53.1584 289.6355 0000966  44.2257 226.9811 15.49361152  5170
STARLINK-35072          
1 65505U 25198P   25276.58336806 -.00081425  00000+0 -14694-2 0  9994
2 65505  53.1586 289.6264 0001451  77.4349 197.6820 15.49344460  5078
STARLINK-35184          
1 65506U 25198Q   25276.58336806 -.00067438  00000+0 -12134-2 0  9990
2 65506  53.1584 289.6220 0001296  83.0739 193.9544 15.49344229  5077
STARLINK-35163          
1 65507U 25198R   25276.58336806  .00032837  00000+0  59619-3 0  9994
2 65507  53.1584 289.6147 0001027  48.4158 232.3597 15.49298436  5353
STARLINK-35119          
1 65508U 25198S   25276.58336806 -.00005507  00000+0 -90980-4 0  9998
2 65508  53.1585 289.6191 0001098  38.7949 240.0611 15.49323760  5231
STARLINK-35168          
1 65509U 25198T   25276.58336806 -.00059318  00000+0 -10654-2 0  9996
2 65509  53.1587 289.6101 0001412  82.1566 200.6253 15.49339122  5270
STARLINK-35122          
1 65510U 25198U   25276.58336806  .00000803  00000+0  22502-4 0  9998
2 65510  53.1585 289.6061 0001418  76.6114 208.0976 15.49306213  5233
STARLINK-35124          
1 65511U 25198V   25276.58336806 -.00061705  00000+0 -11092-2 0  9999
2 65511  53.1586 289.6021 0001442  80.8704 205.7513 15.49332654  5284
STARLINK-35149          
1 65512U 25198W   25276.58336806 -.00030502  00000+0 -54255-3 0  9990
2 65512  53.1587 289.5973 0001190  82.8459 205.7176 15.49306053  5346
STARLINK-35019          
1 65513U 25198X   25276.58336806  .00018069  00000+0  33231-3 0  9994
2 65513  53.1587 289.5937 0001452  78.0193 212.4381 15.49298000  5244
STARLINK-35026          
1 65514U 25198Y   25276.58336806  .00030973  00000+0  56302-3 0  9997
2 65514  53.1585 289.5906 0001094  42.5931 249.6736 15.49294773  5291
STARLINK-35241          
1 65515U 25198Z   25276.58336806 -.00075124  00000+0 -13541-2 0  9994
2 65515  53.1586 289.5859 0001531  75.0757 219.2102 15.49339617  5245
STARLINK-35216          
1 65516U 25198AA  25276.58336806  .00022415  00000+0  41008-3 0  9998
2 65516  53.1585 289.5824 0001113  43.5852 252.5097 15.49297752  5289
STARLINK-35228          
1 65517U 25198AB  25276.58336806 -.00033458  00000+0 -59620-3 0  9999
2 65517  53.1586 289.5776 0001220  82.8456 215.3020 15.49303506  5347
STARLINK-35232          
1 65518U 25198AC  25276.58336806 -.00039111  00000+0 -69864-3 0  9993
2 65518  53.1585 289.5741 0001297  84.1377 215.9271 15.49309363  5240
STARLINK-35164          
1 65519U 25198AD  25276.58336806 -.00061325  00000+0 -11019-2 0  9994
2 65519  53.1588 289.5700 0001394  80.6519 221.2951 15.49341358  5285
STARLINK-35112          
1 65520U 25200A   25276.58336806 -.01452583  00000+0 -28520-1 0  9995
2 65520  97.6034 343.1284 0001686  89.9610 295.3650 15.50514151  5348
STARLINK-35187          
1 65521U 25200B   25276.58336806 -.01451217  00000+0 -28493-1 0  9998
2 65521  97.6035 343.1292 0001618  94.8667 292.3817 15.50512367  5340
STARLINK-35188          
1 65522U 25200C   25276.58336806 -.01453193  00000+0 -28534-1 0  9990
2 65522  97.6034 343.1310 0001702  87.7410 303.3486 15.50513830  5297
STARLINK-35078          
1 65523U 25200D   25276.58336806 -.01447262  00000+0 -28408-1 0  9991
2 65523  97.6031 343.1299 0001682  94.2777 294.8916 15.50510097  5392
